satname,norad_id,inclination_deg,eccentricity,mean_motion_rev_per_day,perigee_km,apogee_km,l1,l2
STARLINK-1560,46036,53.0727,0.0001957,15.11068855,531.5865487598558,534.2915439243934,1 46036U 20055K   26063.91668981  .01508826  00000+0  81127-1 0  9995,2 46036  53.0727 148.0079 0001957  87.1837  83.5654 15.11068855  5848
STARLINK-1567,46038,53.0661,0.0001649,15.09548292,536.438868623537,538.7196718494606,1 46038U 20055M   26063.91668981  .01344227  00000+0  76142-1 0  9991,2 46038  53.0661 148.0273 0001649  62.0464  37.8184 15.09548292  5844
STARLINK-1569,46039,53.0762,0.000208,15.12240825,527.9311520277188,530.8046740715472,1 46039U 20055N   26063.91668981  .00050539  00000+0  28871-2 0  9998,2 46039  53.0762 147.9707 0002080  64.3240  26.4718 15.12240825  5846
STARLINK-1582,46043,53.0657,7.49e-05,15.09417253,537.4615026892698,538.497536943938,1 46043U 20055S   26063.91668981  .01363830  00000+0  77425-1 0  9993,2 46043  53.0657 148.0287 0000749  77.4493 301.2233 15.09417253  5533
STARLINK-1591,46045,53.0796,5.21e-05,15.13075814,526.4666653545019,527.1861625422362,1 46045U 20055U   26063.91668981  .00042601  00000+0  23829-2 0  9994,2 46045  53.0796 147.9281 0000521 127.0915 167.4936 15.13075814  5844
STARLINK-1524,46047,53.1559,0.0001353,15.29357457,476.8043067491426,478.65950487505415,1 46047U 20055W   26063.49129040 -.00000935  00000+0 -20070-4 0  9990,2 46047  53.1559 137.9528 0001353  75.0944 285.0207 15.29357457308279
STARLINK-1527,46048,53.1557,0.0001432,15.29367043,476.72150128345766,478.6850139332364,1 46048U 20055X   26063.50040034  .00003619  00000+0  13763-3 0  9998,2 46048  53.1557 138.0357 0001432  82.8891 277.2273 15.29367043308251
STARLINK-1540,46051,53.1566,0.0001624,15.29370794,476.5786610157247,478.80543429040335,1 46051U 20055AA  26063.58776551  .00008087  00000+0  29214-3 0  9992,2 46051  53.1566 137.5262 0001624  75.4240 284.6940 15.29370794308309
STARLINK-1541,46052,53.1555,0.0001615,15.29587245,475.9381442137392,478.1523680824748,1 46052U 20055AB  26063.91668981  .00587699  00000+0  18911-1 0  9998,2 46052  53.1555 136.0538 0001615 111.3495 311.6402 15.29587245  5792
STARLINK-1543,46053,53.1565,0.0001562,15.29361457,476.6490667351245,478.7908364468012,1 46053U 20055AC  26063.51891842  .00002767  00000+0  10819-3 0  9998,2 46053  53.1565 137.9171 0001562  76.8431 283.2744 15.29361457308281
STARLINK-1548,46054,53.1568,0.0001137,15.29355835,476.9572404178716,478.51626610936455,1 46054U 20055AD  26063.46090957 -.00000357  00000+0 -48534-7 0  9995,2 46054  53.1568 138.1866 0001137 100.6834 259.4295 15.29355835308278
STARLINK-1554,46055,53.1573,0.0001253,15.30120386,474.59403797878986,476.31154758086177,1 46055U 20055AE  26063.91668981  .00060944  00000+0  20580-2 0  9996,2 46055  53.1573 136.2066 0001253  97.8994 260.3771 15.30120386  5737
STARLINK-1564,46058,53.1585,8.6e-05,15.30045604,475.08667888355467,476.2655347379268,1 46058U 20055AH  26063.58844530  .00104061  00000+0  34933-2 0  9994,2 46058  53.1585 138.0655 0000860  65.0537 295.0553 15.30045604308288
STARLINK-1570,46059,53.1582,0.0001217,15.29844274,475.4432267063348,477.1115911734705,1 46059U 20055AJ  26063.68291470  .00062788  00000+0  21375-2 0  9990,2 46059  53.1582 137.1645 0001217  82.9098 277.2041 15.29844274308262
STARLINK-1572,46060,53.1546,0.0001156,15.29341612,476.986716062971,478.5718039022795,1 46060U 20055AK  26063.91668981  .00001113  00000+0  50917-4 0  9994,2 46060  53.1546 136.2330 0001156  87.1592  57.1913 15.29341612  5785
STARLINK-1573,46061,53.1609,0.0001281,15.30204212,474.32458038631376,476.08040596446517,1 46061U 20055AL  26063.60201306  .00003460  00000+0  12889-3 0  9997,2 46061  53.1609 137.4944 0001281  83.9717 276.1430 15.30204212308297
STARLINK-1577,46063,53.1556,0.000166,15.29354788,476.60180673267496,478.8779578575977,1 46063U 20055AN  26063.49749668  .00003187  00000+0  12273-3 0  9997,2 46063  53.1556 137.9478 0001660 106.1774 253.9409 15.29354788308278
STARLINK-1583,46064,53.1575,0.0001533,15.29358394,476.6781012571464,478.78010980510226,1 46064U 20055AP  26063.46640063  .00001776  00000+0  73879-4 0  9996,2 46064  53.1575 138.1087 0001533  92.7602 267.3574 15.29358394308266
STARLINK-1525,46066,53.0528,7.76e-05,15.10062876,535.4715312975486,536.5446066122504,1 46066U 20055AR  26063.91668981  .00079197  00000+0  47756-2 0  9992,2 46066  53.0528 118.0098 0000776 138.1094 174.7764 15.10062876  5782
STARLINK-1536,46070,53.0553,0.0001478,15.06388358,546.2236674307642,548.2708110118774,1 46070U 20055AV  26063.44235224  .00000752  00000+0  69362-4 0  9995,2 46070  53.0553 120.1746 0001478 101.8558 258.2597 15.06388358308522
STARLINK-1542,46073,53.054,0.0001347,15.06399308,546.280834082987,548.1465235558608,1 46073U 20055AY  26063.43497193  .00000738  00000+0  68406-4 0  9994,2 46073  53.0540 120.2078 0001347  94.3152 265.7991 15.06399308308518
STARLINK-1549,46074,53.0543,0.0001464,15.06419927,546.1366231386901,548.164347314364,1 46074U 20055AZ  26063.55289942  .00003137  00000+0  22929-3 0  9994,2 46074  53.0543 119.6785 0001464  79.4297 280.6857 15.06419927308521
STARLINK-1551,46075,53.0551,0.0001211,15.06396505,546.3836086230622,548.0609306381675,1 46075U 20055BA  26063.44603442  .00000778  00000+0  71117-4 0  9990,2 46075  53.0551 120.1604 0001211  74.1430 285.9693 15.06396505308510
STARLINK-1552,46076,53.0538,0.0001569,15.06400067,546.1247654364133,548.2979397494564,1 46076U 20055BB  26063.53817624 -.00000107  00000+0  11717-4 0  9997,2 46076  53.0538 119.7438 0001569 115.1141 245.0011 15.06400067308516
STARLINK-1559,46077,53.0261,0.0003327,15.28965306,476.6227862102678,481.1854613740379,1 46077U 20055BC  26063.46260200  .00037385  00000+0  13168-2 0  9999,2 46077  53.0261  98.2647 0003327  20.1769 339.9360 15.28965306308783
STARLINK-1566,46079,53.0542,0.0001711,15.06403672,546.0153785973207,548.385229022685,1 46079U 20055BE  26063.42391533  .00002752  00000+0  20353-3 0  9996,2 46079  53.0542 120.2616 0001711  71.2698 288.8476 15.06403672308512
STARLINK-1568,46080,53.0618,0.0005997,15.46048013,424.2186124710797,432.3822535282188,1 46080U 20055BF  26063.91668981  .00098983  00000+0  19757-2 0  9992,2 46080  53.0618  55.7429 0005997 103.3769 323.2549 15.46048013  5953
STARLINK-1578,46082,53.0536,0.0001514,15.0640787,546.1389435069204,548.2359317466335,1 46082U 20055BH  26063.57136225  .00009696  00000+0  66878-3 0  9997,2 46082  53.0536 119.5956 0001514  94.0869 266.0292 15.06407870308531
